OBJECT_NAME,OBJECT_ID,EPOCH,MEAN_MOTION,ECCENTRICITY,INCLINATION,RA_OF_ASC_NODE,ARG_OF_PERICENTER,MEAN_ANOMALY,EPHEMERIS_TYPE,CLASSIFICATION_TYPE,NORAD_CAT_ID,ELEMENT_SET_NO,REV_AT_EPOCH,BSTAR,MEAN_MOTION_DOT,MEAN_MOTION_DDOT
BEIDOU-2 IGSO-5 (C10),2011-073A,2026-06-10T18:51:33.119136,1.00274252,.01136979,47.6911,271.6265,221.6290,140.5292,0,U,37948,999,5307,0,-.166E-5,0
LUCH 5A (SDCM/PRN 140),2011-074B,2026-06-11T12:19:35.950656,1.00269761,.00022058,8.7389,73.8906,21.3830,156.4593,0,U,37951,999,5299,0,-.38E-6,0
BEIDOU-2 G5 (C05),2012-008A,2026-06-11T16:24:17.978688,1.00270637,.000921,3.5586,69.7330,274.5160,220.5147,0,U,38091,999,5231,0,.72E-6,0
BEIDOU-2 M3 (C11),2012-018A,2026-06-11T06:46:16.125312,1.86230146,.0019968,55.7634,305.0746,274.6293,85.1272,0,U,38250,999,9583,0,-.66E-6,0
BEIDOU-2 M4 (C12),2012-018B,2026-06-09T14:29:07.108800,1.86229817,.00111465,55.6651,304.3456,277.0468,82.8157,0,U,38251,999,9580,0,-.6E-6,0
SES-5 (EGNOS/PRN 136),2012-036A,2026-06-10T16:44:16.060704,1.00271674,.00018481,0.0496,311.6239,129.2695,74.2159,0,U,38652,999,4439,0,.51E-6,0
BEIDOU-2 M6 (C14),2012-050B,2026-06-10T22:10:50.283840,1.86230876,.00138013,56.5389,63.1015,356.5359,3.4771,0,U,38775,999,9319,0,-.53E-6,0
GSAT-10 (GAGAN/PRN 128),2012-051B,2026-06-11T11:55:49.330272,1.00269530,.00077471,0.0170,344.7003,106.3247,70.7939,0,U,38779,999,5004,0,0,0
GPS BIIF-3  (PRN 24),2012-053A,2026-06-11T08:00:08.402112,2.00567339,.01799465,53.5848,143.8391,65.6739,296.1889,0,U,38833,999,9932,0,.92E-6,0
GSAT0103 (GALILEO-FM3),2012-055A,2026-06-11T00:33:20.070144,1.70473353,.00049909,55.8029,101.7147,304.7651,55.1525,0,U,38857,999,8490,0,.14E-6,0
BEIDOU-2 G6 (C02),2012-059A,2026-06-11T15:56:22.643808,1.00273386,.00098409,4.4060,73.5834,324.7911,184.7466,0,U,38953,999,4985,0,-.162E-5,0
LUCH 5B (SDCM/PRN 125),2012-061A,2026-06-10T23:28:44.789088,1.00273172,.00019402,10.4672,49.9410,141.4195,43.8723,0,U,38977,999,4954,0,-.127E-5,0
COSMOS 2485 (747),2013-019A,2026-06-11T06:41:34.139040,2.13103450,.00233615,65.4165,73.8029,234.5519,125.2463,0,U,39155,999,10215,0,-.29E-6,0
GPS BIIF-4  (PRN 27),2013-023A,2026-06-11T04:48:17.540928,2.00563436,.01415656,54.5089,269.2176,51.0220,310.2469,0,U,39166,999,9576,0,-.3E-6,0
IRNSS-1A,2013-034A,2026-05-22T20:37:38.469792,1.00280263,.00166187,35.6649,64.2334,185.3754,355.4646,0,U,39199,999,4711,0,.59E-6,0
GPS BIIF-5  (PRN 30),2014-008A,2026-06-11T04:50:37.246272,2.00559361,.00842436,53.6537,149.5638,231.1841,128.0659,0,U,39533,999,8956,0,.102E-5,0
ASTRA 5B (EGNOS/PRN 123),2014-011B,2026-06-11T13:21:20.972736,1.00271057,.00018893,0.0514,325.6594,103.2167,54.8518,0,U,39617,999,4461,0,.154E-5,0
COSMOS 2492 (754),2014-012A,2026-06-09T08:39:27.110016,2.13103521,.00104861,65.3026,314.2024,325.9791,33.9512,0,U,39620,999,9507,0,-.33E-6,0
IRNSS-1B,2014-017A,2026-06-10T18:41:19.254048,1.00274335,.00229797,28.9327,240.5136,189.5605,164.4642,0,U,39635,999,4472,0,.125E-5,0
LUCH 5V (SDCM/PRN 141),2014-023A,2026-06-11T15:24:23.577120,1.00265868,.00027162,5.1184,69.8082,38.5192,117.3745,0,U,39727,999,4430,0,-.253E-5,0
GPS BIIF-6  (PRN 06),2014-026A,2026-06-10T23:29:17.077632,2.00561348,.00382142,56.5015,331.7592,326.6633,33.1027,0,U,39741,999,8841,0,-.62E-6,0
COSMOS 2500 (755),2014-032A,2026-06-10T22:31:12.700416,2.13106108,.00071114,65.2368,313.8964,183.5572,176.4316,0,U,40001,999,9332,0,-.4E-6,0
GPS BIIF-7  (PRN 09),2014-045A,2026-06-11T01:41:19.002912,2.00557949,.00330492,55.3493,88.7087,118.3165,242.0048,0,U,40105,999,8595,0,-.16E-6,0
GSAT0201 (GALILEO 5),2014-050A,2026-06-09T07:58:17.347008,1.85520027,.16733008,48.8841,273.7586,179.0833,181.3092,0,U,40128,999,7817,0,-.53E-6,0
GSAT0202 (GALILEO 6),2014-050B,2026-06-09T14:06:18.101664,1.85520607,.16746766,48.9007,272.8335,179.8278,180.2807,0,U,40129,999,8034,0,-.52E-6,0
IRNSS-1C,2014-061A,2026-06-10T21:04:30.635904,1.00270328,.0022686,6.5024,89.0489,1.7061,207.6145,0,U,40269,999,4262,0,-.146E-5,0
GPS BIIF-8  (PRN 03),2014-068A,2026-06-10T22:34:44.527296,2.00575724,.00669153,56.9833,31.1954,70.3530,290.4228,0,U,40294,999,8508,0,-.63E-6,0
COSMOS 2501 (702K),2014-075A,2026-06-11T04:48:31.142880,2.13101483,.00225423,63.6159,190.5792,212.2512,147.6843,0,U,40315,999,8972,0,.121E-5,0
GPS BIIF-9  (PRN 26),2015-013A,2026-06-11T01:54:03.776832,2.00551724,.01093756,53.1684,204.4303,40.0978,320.7887,0,U,40534,999,8170,0,.94E-6,0
GSAT0203 (GALILEO 7),2015-017A,2026-06-08T09:56:18.112128,1.70476076,.00020951,56.7896,341.8347,280.5229,79.4690,0,U,40544,999,6905,0,-.63E-6,0
GSAT0204 (GALILEO 8),2015-017B,2026-06-11T00:23:20.064480,1.70475559,.00018935,56.7983,341.7824,249.4853,110.5089,0,U,40545,999,3214,0,-.65E-6,0
